{
  "status": "success",
  "hasErrors": false,
  "message": "",
  "length": 155,
  "payload": [
    {
      "_index": "tle",
      "_type": "_doc",
      "_id": "1vEBtnYBwxzt-ZlwrW5L",
      "_score": 9.726809,
      "_source": {
        "right_ascension": "060.6187",
        "anomaly": "356.3836",
        "calc_anomaly": 356.3836,
        "satellite_number": 10976,
        "calc_mean_motion": 2.22237116,
        "ephemeris": "0",
        "set_number": "516",
        "calc_ballistic_coefficient": -0.00000194,
        "epoch": "10005.42930751",
        "international_designator": "78068B",
        "calc_inclination": 21.8339,
        "perigee": "031.2423",
        "revolution_number": "25575",
        "line_number": 135221,
        "calc_perigee": 31.2423,
        "drag": "00000+0",
        "text": "1 10976U 78068B   10005.42930751 -.00000194  00000-0  00000-0 0  5169\n2 10976  21.8339  60.6187 7178465  31.2423 356.3836  2.22237116255756",
        "calc_drag": 0,
        "timestamp": "2010-01-05 10:18:12",
        "inclination": "021.8339",
        "eccentricity": "7178465",
        "classification": "U",
        "calc_right_ascension": 60.6187,
        "calc_mean_motion_2": 0,
        "ballistic_coefficient": "-.00000194",
        "filename": "tle2010.txt",
        "calc_eccentricity": 0.7178465,
        "mean_motion": "02.22237116",
        "mean_motion_2": "00000-0"
      }
    },
    {
      "_index": "tle",
      "_type": "_doc",
      "_id": "xWMYtnYBAz3ao6c9jYsZ",
      "_score": 9.726809,
      "_source": {
        "right_ascension": "171.0820",
        "anomaly": "332.7010",
        "calc_anomaly": 332.701,
        "satellite_number": 10976,
        "calc_mean_motion": 2.22263809,
        "ephemeris": "0",
        "set_number": "0936",
        "calc_ballistic_coefficient": -7.2e-7,
        "epoch": "11365.72841955",
        "international_designator": "78068B",
        "calc_inclination": 21.1309,
        "perigee": "114.8472",
        "revolution_number": "27188",
        "line_number": 36957,
        "calc_perigee": 114.8472,
        "drag": "+00000-0",
        "text": "1 10976U 78068B   11365.72841955 -.00000072  00000-0  00000-0 0  9360\n2 10976  21.1309 171.0820 7193563 114.8472 332.7010  2.22263809271887",
        "calc_drag": 0,
        "timestamp": "2011-12-31 17:28:55",
        "inclination": "021.1309",
        "eccentricity": "7193563",
        "classification": "U",
        "calc_right_ascension": 171.082,
        "calc_mean_motion_2": 0,
        "ballistic_coefficient": "-.00000072",
        "filename": "tle2012.txt",
        "calc_eccentricity": 0.7193563,
        "mean_motion": "02.22263809",
        "mean_motion_2": "+00000-0"
      }
    },
    {
      "_index": "tle",
      "_type": "_doc",
      "_id": "HvMctnYBwxzt-Zlw02dk",
      "_score": 9.726809,
      "_source": {
        "right_ascension": "169.6165",
        "anomaly": "330.8556",
        "calc_anomaly": 330.8556,
        "satellite_number": 10976,
        "calc_mean_motion": 2.2226501,
        "ephemeris": "0",
        "set_number": "937",
        "calc_ballistic_coefficient": -0.000001,
        "epoch": "12004.77531901",
        "international_designator": "78068B",
        "calc_inclination": 21.1373,
        "perigee": "117.4097",
        "revolution_number": "27197",
        "line_number": 124167,
        "calc_perigee": 117.4097,
        "drag": "00000+0",
        "text": "1 10976U 78068B   12004.77531901 -.00000100  00000-0  00000-0 0  9376\n2 10976  21.1373 169.6165 7192508 117.4097 330.8556  2.22265010271973",
        "calc_drag": 0,
        "timestamp": "2012-01-04 18:36:27",
        "inclination": "021.1373",
        "eccentricity": "7192508",
        "classification": "U",
        "calc_right_ascension": 169.6165,
        "calc_mean_motion_2": 0,
        "ballistic_coefficient": "-.00000100",
        "filename": "tle2012.txt",
        "calc_eccentricity": 0.7192508,
        "mean_motion": "02.22265010",
        "mean_motion_2": "00000-0"
      }
    },
    {
      "_index": "tle",
      "_type": "_doc",
      "_id": "-PQvtnYBwxzt-ZlwjL07",
      "_score": 9.726809,
      "_source": {
        "right_ascension": "043.1187",
        "anomaly": "016.5403",
        "calc_anomaly": 16.5403,
        "satellite_number": 10976,
        "calc_mean_motion": 2.2226489,
        "ephemeris": "0",
        "set_number": "128",
        "calc_ballistic_coefficient": 0.00000124,
        "epoch": "13004.16539206",
        "international_designator": "78068B",
        "calc_inclination": 21.7832,
        "perigee": "342.0743",
        "revolution_number": "28010",
        "line_number": 55183,
        "calc_perigee": 342.0743,
        "drag": "21772-2",
        "text": "1 10976U 78068B   13004.16539206  .00000124  00000-0  21772-2 0  1284\n2 10976  21.7832  43.1187 7173937 342.0743  16.5403  2.22264890280107",
        "calc_drag": 0.0021772,
        "timestamp": "2013-01-04 03:58:09",
        "inclination": "021.7832",
        "eccentricity": "7173937",
        "classification": "U",
        "calc_right_ascension": 43.1187,
        "calc_mean_motion_2": 0,
        "ballistic_coefficient": ".00000124",
        "filename": "tle2013.txt",
        "calc_eccentricity": 0.7173937,
        "mean_motion": "02.22264890",
        "mean_motion_2": "00000-0"
      }
    },
    {
      "_index": "tle",
      "_type": "_doc",
      "_id": "6vU5tnYBwxzt-ZlwpJjR",
      "_score": 9.726809,
      "_source": {
        "right_ascension": "151.4478",
        "anomaly": "349.9868",
        "calc_anomaly": 349.9868,
        "satellite_number": 10976,
        "calc_mean_motion": 2.2229827,
        "ephemeris": "0",
        "set_number": "554",
        "calc_ballistic_coefficient": 2.7e-7,
        "epoch": "15005.63698560",
        "international_designator": "78068B",
        "calc_inclination": 21.1644,
        "perigee": "069.7733",
        "revolution_number": "29637",
        "line_number": 93103,
        "calc_perigee": 69.7733,
        "drag": "43779-3",
        "text": "1 10976U 78068B   15005.63698560  .00000027  00000-0  43779-3 0  5545\n2 10976  21.1644 151.4478 7179117  69.7733 349.9868  2.22298270296379",
        "calc_drag": 0.00043779,
        "timestamp": "2015-01-05 15:17:15",
        "inclination": "021.1644",
        "eccentricity": "7179117",
        "classification": "U",
        "calc_right_ascension": 151.4478,
        "calc_mean_motion_2": 0,
        "ballistic_coefficient": ".00000027",
        "filename": "tle2015.txt",
        "calc_eccentricity": 0.7179117,
        "mean_motion": "02.22298270",
        "mean_motion_2": "00000-0"
      }
    },
    {
      "_index": "tle",
      "_type": "_doc",
      "_id": "bvZLtnYBwxzt-ZlwBb4H",
      "_score": 9.726809,
      "_source": {
        "right_ascension": "275.7909",
        "anomaly": "339.7070",
        "calc_anomaly": 339.707,
        "satellite_number": 10976,
        "calc_mean_motion": 2.22279849,
        "ephemeris": "0",
        "set_number": "334",
        "calc_ballistic_coefficient": -0.00000226,
        "epoch": "14013.42701686",
        "international_designator": "78068B",
        "calc_inclination": 21.616,
        "perigee": "209.1452",
        "revolution_number": "28842",
        "line_number": 236361,
        "calc_perigee": 209.1452,
        "drag": "-28692-3",
        "text": "1 10976U 78068B   14013.42701686 -.00000226  00000-0 -28692-3 0  3340\n2 10976  21.6160 275.7909 7187501 209.1452 339.7070  2.22279849288420",
        "calc_drag": -0.00028692,
        "timestamp": "2014-01-13 10:14:54",
        "inclination": "021.6160",
        "eccentricity": "7187501",
        "classification": "U",
        "calc_right_ascension": 275.7909,
        "calc_mean_motion_2": 0,
        "ballistic_coefficient": "-.00000226",
        "filename": "tle2014.txt",
        "calc_eccentricity": 0.7187501,
        "mean_motion": "02.22279849",
        "mean_motion_2": "00000-0"
      }
    },
    {
      "_index": "tle",
      "_type": "_doc",
      "_id": "_GhUtnYBAz3ao6c9azNz",
      "_score": 9.726809,
      "_source": {
        "right_ascension": "25.9718",
        "anomaly": "166.9124",
        "calc_anomaly": 166.9124,
        "satellite_number": 10976,
        "calc_mean_motion": 2.22309951,
        "ephemeris": "0",
        "set_number": "777",
        "calc_ballistic_coefficient": -4.9e-7,
        "epoch": "16002.53586017",
        "international_designator": "78068B",
        "calc_inclination": 21.8969,
        "perigee": "292.3331",
        "revolution_number": "30442",
        "line_number": 69399,
        "calc_perigee": 292.3331,
        "drag": "18649-2",
        "text": "1 10976U 78068B   16002.53586017 -.00000049  00000-0  18649-2 0  7774\n2 10976  21.8969  25.9718 7180177 292.3331 166.9124  2.22309951304421",
        "calc_drag": 0.0018649,
        "timestamp": "2016-01-02 12:51:38",
        "inclination": "21.8969",
        "eccentricity": "7180177",
        "classification": "U",
        "calc_right_ascension": 25.9718,
        "calc_mean_motion_2": 0,
        "ballistic_coefficient": "-.00000049",
        "filename": "tle2016.txt",
        "calc_eccentricity": 0.7180177,
        "mean_motion": "2.22309951",
        "mean_motion_2": "00000-0"
      }
    }
  ]
}